"Fireball MC IT20000000  322 " "Sol" 
 { 
	Class "asteroid"  
	Texture "asteroid.jpg"     
	Color [1.000 0.945 0.881]  
	BlendTexture true          
	Mesh "asteroid.cms"        
	Radius          38.94      
      
	EllipticalOrbit 
	{ 
	Epoch           2456631.5471 
	Period              3.5635 
	SemiMajorAxis       2.3330 
	Eccentricity        0.5991 
	Inclination         4.1057 
	AscendingNode     249.4001 
	ArgOfPericenter    37.5190 
	MeanAnomaly         0.0000 
	} 
 } 
   
"Fireball MC IT20000000  323 " "Sol" 
 { 
	Class "asteroid"  
	Texture "asteroid.jpg"     
	Color [1.000 0.945 0.881]  
	BlendTexture true          
	Mesh "asteroid.cms"        
	Radius          38.94      
      
	EllipticalOrbit 
	{ 
	Epoch           2456782.5711 
	Period              3.1511 
	SemiMajorAxis       2.1494 
	Eccentricity        0.5634 
	Inclination         4.1798 
	AscendingNode     249.4001 
	ArgOfPericenter    37.5036 
	MeanAnomaly         0.0000 
	} 
 } 
   
"Fireball MC IT20000000  324 " "Sol" 
 { 
	Class "asteroid"  
	Texture "asteroid.jpg"     
	Color [1.000 0.945 0.881]  
	BlendTexture true          
	Mesh "asteroid.cms"        
	Radius          38.94      
      
	EllipticalOrbit 
	{ 
	Epoch           2456732.3834 
	Period              3.2881 
	SemiMajorAxis       2.2112 
	Eccentricity        0.5761 
	Inclination         4.1546 
	AscendingNode     249.4001 
	ArgOfPericenter    37.4760 
	MeanAnomaly         0.0000 
	} 
 } 
   
"Fireball MC IT20000000  325 " "Sol" 
 { 
	Class "asteroid"  
	Texture "asteroid.jpg"     
	Color [1.000 0.945 0.881]  
	BlendTexture true          
	Mesh "asteroid.cms"        
	Radius          38.94      
      
	EllipticalOrbit 
	{ 
	Epoch           2456000.2111 
	Period              5.2892 
	SemiMajorAxis       3.0357 
	Eccentricity        0.6943 
	Inclination         3.9180 
	AscendingNode     249.4001 
	ArgOfPericenter    37.5223 
	MeanAnomaly         0.0000 
	} 
 } 
   
"Fireball MC IT20000000  326 " "Sol" 
 { 
	Class "asteroid"  
	Texture "asteroid.jpg"     
	Color [1.000 0.945 0.881]  
	BlendTexture true          
	Mesh "asteroid.cms"        
	Radius          38.94      
      
	EllipticalOrbit 
	{ 
	Epoch           2456381.1455 
	Period              4.2477 
	SemiMajorAxis       2.6228 
	Eccentricity        0.6448 
	Inclination         4.0245 
	AscendingNode     249.4001 
	ArgOfPericenter    37.4939 
	MeanAnomaly         0.0000 
	} 
 } 
   
"Fireball MC IT20000000  327 " "Sol" 
 { 
	Class "asteroid"  
	Texture "asteroid.jpg"     
	Color [1.000 0.945 0.881]  
	BlendTexture true          
	Mesh "asteroid.cms"        
	Radius          38.94      
      
	EllipticalOrbit 
	{ 
	Epoch           2456540.2402 
	Period              3.8130 
	SemiMajorAxis       2.4407 
	Eccentricity        0.6174 
	Inclination         4.0752 
	AscendingNode     249.4001 
	ArgOfPericenter    37.5284 
	MeanAnomaly         0.0000 
	} 
 } 
   
"Fireball MC IT20000000  328 " "Sol" 
 { 
	Class "asteroid"  
	Texture "asteroid.jpg"     
	Color [1.000 0.945 0.881]  
	BlendTexture true          
	Mesh "asteroid.cms"        
	Radius          38.94      
      
	EllipticalOrbit 
	{ 
	Epoch           2456200.5278 
	Period              4.7415 
	SemiMajorAxis       2.8223 
	Eccentricity        0.6706 
	Inclination         3.9717 
	AscendingNode     249.4001 
	ArgOfPericenter    37.5155 
	MeanAnomaly         0.0000 
	} 
 } 
   
"Fireball MC IT20000000  329 " "Sol" 
 { 
	Class "asteroid"  
	Texture "asteroid.jpg"     
	Color [1.000 0.945 0.881]  
	BlendTexture true          
	Mesh "asteroid.cms"        
	Radius          38.94      
      
	EllipticalOrbit 
	{ 
	Epoch           2456365.9487 
	Period              4.2893 
	SemiMajorAxis       2.6399 
	Eccentricity        0.6472 
	Inclination         4.0248 
	AscendingNode     249.4001 
	ArgOfPericenter    37.5403 
	MeanAnomaly         0.0000 
	} 
 } 
   
"Fireball MC IT20000000  330 " "Sol" 
 { 
	Class "asteroid"  
	Texture "asteroid.jpg"     
	Color [1.000 0.945 0.881]  
	BlendTexture true          
	Mesh "asteroid.cms"        
	Radius          38.94      
      
	EllipticalOrbit 
	{ 
	Epoch           2456428.1220 
	Period              4.1193 
	SemiMajorAxis       2.5697 
	Eccentricity        0.6372 
	Inclination         4.0238 
	AscendingNode     249.4001 
	ArgOfPericenter    37.5150 
	MeanAnomaly         0.0000 
	} 
 } 
   
"Fireball MC IT20000000  331 " "Sol" 
 { 
	Class "asteroid"  
	Texture "asteroid.jpg"     
	Color [1.000 0.945 0.881]  
	BlendTexture true          
	Mesh "asteroid.cms"        
	Radius          38.94      
      
	EllipticalOrbit 
	{ 
	Epoch           2456261.6129 
	Period              4.5744 
	SemiMajorAxis       2.7557 
	Eccentricity        0.6624 
	Inclination         3.9825 
	AscendingNode     249.4001 
	ArgOfPericenter    37.5067 
	MeanAnomaly         0.0000 
	} 
 } 
   
"Fireball MC IT20000000  332 " "Sol" 
 { 
	Class "asteroid"  
	Texture "asteroid.jpg"     
	Color [1.000 0.945 0.881]  
	BlendTexture true          
	Mesh "asteroid.cms"        
	Radius          38.94      
      
	EllipticalOrbit 
	{ 
	Epoch           2456256.3508 
	Period              4.5888 
	SemiMajorAxis       2.7614 
	Eccentricity        0.6631 
	Inclination         3.9703 
	AscendingNode     249.4001 
	ArgOfPericenter    37.4900 
	MeanAnomaly         0.0000 
	} 
 } 
   
"Fireball MC IT20000000  333 " "Sol" 
 { 
	Class "asteroid"  
	Texture "asteroid.jpg"     
	Color [1.000 0.945 0.881]  
	BlendTexture true          
	Mesh "asteroid.cms"        
	Radius          38.94      
      
	EllipticalOrbit 
	{ 
	Epoch           2456872.8922 
	Period              2.9047 
	SemiMajorAxis       2.0358 
	Eccentricity        0.5381 
	Inclination         4.2212 
	AscendingNode     249.4001 
	ArgOfPericenter    37.5294 
	MeanAnomaly         0.0000 
	} 
 } 
   
"Fireball MC IT20000000  334 " "Sol" 
 { 
	Class "asteroid"  
	Texture "asteroid.jpg"     
	Color [1.000 0.945 0.881]  
	BlendTexture true          
	Mesh "asteroid.cms"        
	Radius          38.94      
      
	EllipticalOrbit 
	{ 
	Epoch           2456462.1125 
	Period              4.0264 
	SemiMajorAxis       2.5309 
	Eccentricity        0.6315 
	Inclination         4.0425 
	AscendingNode     249.4001 
	ArgOfPericenter    37.4998 
	MeanAnomaly         0.0000 
	} 
 } 
   
"Fireball MC IT20000000  335 " "Sol" 
 { 
	Class "asteroid"  
	Texture "asteroid.jpg"     
	Color [1.000 0.945 0.881]  
	BlendTexture true          
	Mesh "asteroid.cms"        
	Radius          38.94      
      
	EllipticalOrbit 
	{ 
	Epoch           2456508.9529 
	Period              3.8984 
	SemiMajorAxis       2.4770 
	Eccentricity        0.6232 
	Inclination         4.0559 
	AscendingNode     249.4001 
	ArgOfPericenter    37.4957 
	MeanAnomaly         0.0000 
	} 
 } 
   
"Fireball MC IT20000000  336 " "Sol" 
 { 
	Class "asteroid"  
	Texture "asteroid.jpg"     
	Color [1.000 0.945 0.881]  
	BlendTexture true          
	Mesh "asteroid.cms"        
	Radius          38.94      
      
	EllipticalOrbit 
	{ 
	Epoch           2456823.3132 
	Period              3.0399 
	SemiMajorAxis       2.0985 
	Eccentricity        0.5524 
	Inclination         4.1927 
	AscendingNode     249.4001 
	ArgOfPericenter    37.5161 
	MeanAnomaly         0.0000 
	} 
 } 
   
"Fireball MC IT20000000  337 " "Sol" 
 { 
	Class "asteroid"  
	Texture "asteroid.jpg"     
	Color [1.000 0.945 0.881]  
	BlendTexture true          
	Mesh "asteroid.cms"        
	Radius          38.94      
      
	EllipticalOrbit 
	{ 
	Epoch           2456596.6499 
	Period              3.6588 
	SemiMajorAxis       2.3744 
	Eccentricity        0.6063 
	Inclination         4.0729 
	AscendingNode     249.4001 
	ArgOfPericenter    37.5082 
	MeanAnomaly         0.0000 
	} 
 } 
   
"Fireball MC IT20000000  338 " "Sol" 
 { 
	Class "asteroid"  
	Texture "asteroid.jpg"     
	Color [1.000 0.945 0.881]  
	BlendTexture true          
	Mesh "asteroid.cms"        
	Radius          38.94      
      
	EllipticalOrbit 
	{ 
	Epoch           2456007.5220 
	Period              5.2693 
	SemiMajorAxis       3.0281 
	Eccentricity        0.6936 
	Inclination         3.9249 
	AscendingNode     249.4001 
	ArgOfPericenter    37.5222 
	MeanAnomaly         0.0000 
	} 
 } 
   
"Fireball MC IT20000000  339 " "Sol" 
 { 
	Class "asteroid"  
	Texture "asteroid.jpg"     
	Color [1.000 0.945 0.881]  
	BlendTexture true          
	Mesh "asteroid.cms"        
	Radius          38.94      
      
	EllipticalOrbit 
	{ 
	Epoch           2455814.7506 
	Period              5.7965 
	SemiMajorAxis       3.2268 
	Eccentricity        0.7129 
	Inclination         3.8770 
	AscendingNode     249.4001 
	ArgOfPericenter    37.5299 
	MeanAnomaly         0.0000 
	} 
 } 
   
"Fireball MC IT20000000  340 " "Sol" 
 { 
	Class "asteroid"  
	Texture "asteroid.jpg"     
	Color [1.000 0.945 0.881]  
	BlendTexture true          
	Mesh "asteroid.cms"        
	Radius          38.94      
      
	EllipticalOrbit 
	{ 
	Epoch           2455997.6296 
	Period              5.2963 
	SemiMajorAxis       3.0384 
	Eccentricity        0.6946 
	Inclination         3.9084 
	AscendingNode     249.4001 
	ArgOfPericenter    37.5100 
	MeanAnomaly         0.0000 
	} 
 } 
   
"Fireball MC IT20000000  341 " "Sol" 
 { 
	Class "asteroid"  
	Texture "asteroid.jpg"     
	Color [1.000 0.945 0.881]  
	BlendTexture true          
	Mesh "asteroid.cms"        
	Radius          38.94      
      
	EllipticalOrbit 
	{ 
	Epoch           2456504.1297 
	Period              3.9116 
	SemiMajorAxis       2.4826 
	Eccentricity        0.6241 
	Inclination         4.0497 
	AscendingNode     249.4001 
	ArgOfPericenter    37.5101 
	MeanAnomaly         0.0000 
	} 
 } 
   
